[Satellite]
VERSION=1.1
NAME=EUTELSAT 117 WEST A
NICKNAME=EUTELSAT 117 WEST A
TLE1=1 39122U 13012A   15052.90367983 -.00000038  00000-0  00000+0 0  9993
TLE2=2 39122   0.0453 256.6476 0002761  84.6780  18.6328  1.00273197  7034
